[{"OBJECT_NAME":"STARLINK-2510","OBJECT_ID":"2021-036BF","EPOCH":"2026-03-10T00:00:02.999808","MEAN_MOTION":15.27522735,"ECCENTRICITY":0.00013223,"INCLINATION":53.1472,"RA_OF_ASC_NODE":99.4042,"ARG_OF_PERICENTER":72.9296,"MEAN_ANOMALY":288.2883,"EPHEMERIS_TYPE":0,"CLASSIFICATION_TYPE":"U","NORAD_CAT_ID":48329,"ELEMENT_SET_NO":999,"REV_AT_EPOCH":579,"BSTAR":0.061604717,"MEAN_MOTION_DOT":0.01847718,"MEAN_MOTION_DDOT":0},{"OBJECT_NAME":"H-2A R\/B","OBJECT_ID":"2018-084L","EPOCH":"2026-03-09T14:28:20.133120","MEAN_MOTION":15.41344491,"ECCENTRICITY":0.0025468,"INCLINATION":98.8729,"RA_OF_ASC_NODE":285.9721,"ARG_OF_PERICENTER":25.6211,"MEAN_ANOMALY":334.6287,"EPHEMERIS_TYPE":0,"CLASSIFICATION_TYPE":"U","NORAD_CAT_ID":43682,"ELEMENT_SET_NO":999,"REV_AT_EPOCH":40576,"BSTAR":0.00049941,"MEAN_MOTION_DOT":0.0002099,"MEAN_MOTION_DDOT":0}]
